ORBCOMM FM20 [+]        
1 25416U 98046D   23303.86538232  .00001561  00000+0  59757-3 0  9991
2 25416  44.9937 114.1501 0000960 136.9001 223.1921 14.34541484318701
ORBCOMM FM16 [-]        
1 25417U 98046E   23303.86816956  .00002576  00000+0  93999-3 0  9997
2 25417  44.9929 111.1584 0004506 180.6699 179.4143 14.35268195318626
ORBCOMM FM15 [-]        
1 25418U 98046F   23303.79022966  .00001905  00000+0  71151-3 0  9991
2 25418  44.9968 115.1579 0003911 181.2525 178.8313 14.35018293318626
ORBCOMM FM14 [-]        
1 25419U 98046G   23303.86131412  .00002233  00000+0  82357-3 0  9992
2 25419  44.9951 114.1527 0002955 168.3422 336.7250 14.35134590318589
ORBCOMM FM13 [+]        
1 25420U 98046H   23303.79375182  .00001721  00000+0  65321-3 0  9993
2 25420  44.9970 118.3877 0005007 167.0305 193.0671 14.34583897317658
ORBCOMM FM21 [-]        
1 25475U 98053A   23303.81125185  .00001658  00000+0  63110-3 0  9993
2 25475  45.0085 202.4229 0000866  10.5110 349.5755 14.34605660311677
ORBCOMM FM22 [-]        
1 25476U 98053B   23303.77933939  .00001800  00000+0  67581-3 0  9998
2 25476  45.0081 200.5275 0001795  84.9377 275.1675 14.34981414311653
ORBCOMM FM23 [-]        
1 25477U 98053C   23303.84120999  .00001741  00000+0  66045-3 0  9999
2 25477  45.0084 204.7264 0001227  64.8335 295.2640 14.34582702312138
